[
    {
        "OBJECT_NAME": "COSMOS 1885 [GLONASS]",
        "OBJECT_ID": "1987-079C",
        "EPOCH": "2025-02-28T09:16:22.901952",
        "MEAN_MOTION": 2.13102041,
        "ECCENTRICITY": 0.0022226,
        "INCLINATION": 65.851,
        "RA_OF_ASC_NODE": 334.9048,
        "ARG_OF_PERICENTER": 212.9519,
        "MEAN_ANOMALY": 247.1088,
        "EPHEMERIS_TYPE": 0,
        "CLASSIFICATION_TYPE": "U",
        "NORAD_CAT_ID": 18357,
        "ELEMENT_SET_NO": 999,
        "REV_AT_EPOCH": 27504,
        "BSTAR": 0,
        "MEAN_MOTION_DOT": -4.7e-07,
        "MEAN_MOTION_DDOT": 0
    },
    {
        "OBJECT_NAME": "COSMOS 1946 [GLONASS]",
        "OBJECT_ID": "1988-043A",
        "EPOCH": "2025-03-01T08:20:48.895296",
        "MEAN_MOTION": 2.13103069,
        "ECCENTRICITY": 0.0003629,
        "INCLINATION": 64.7055,
        "RA_OF_ASC_NODE": 89.7814,
        "ARG_OF_PERICENTER": 92.8379,
        "MEAN_ANOMALY": 335.5198,
        "EPHEMERIS_TYPE": 0,
        "CLASSIFICATION_TYPE": "U",
        "NORAD_CAT_ID": 19163,
        "ELEMENT_SET_NO": 999,
        "REV_AT_EPOCH": 28552,
        "BSTAR": 0,
        "MEAN_MOTION_DOT": 4.7e-07,
        "MEAN_MOTION_DDOT": 0
    },
    {
        "OBJECT_NAME": "COSMOS 1947 [GLONASS]",
        "OBJECT_ID": "1988-043B",
        "EPOCH": "2025-03-01T06:26:22.942176",
        "MEAN_MOTION": 2.13103968,
        "ECCENTRICITY": 0.0024298,
        "INCLINATION": 64.7018,
        "RA_OF_ASC_NODE": 89.7048,
        "ARG_OF_PERICENTER": 223.7533,
        "MEAN_ANOMALY": 209.6406,
        "EPHEMERIS_TYPE": 0,
        "CLASSIFICATION_TYPE": "U",
        "NORAD_CAT_ID": 19164,
        "ELEMENT_SET_NO": 999,
        "REV_AT_EPOCH": 28122,
        "BSTAR": 0,
        "MEAN_MOTION_DOT": 4.8e-07,
        "MEAN_MOTION_DDOT": 0
    },
    {
        "OBJECT_NAME": "COSMOS 1948 [GLONASS]",
        "OBJECT_ID": "1988-043C",
        "EPOCH": "2025-03-02T08:17:56.928192",
        "MEAN_MOTION": 2.13102935,
        "ECCENTRICITY": 0.0004431,
        "INCLINATION": 64.6934,
        "RA_OF_ASC_NODE": 89.4709,
        "ARG_OF_PERICENTER": 298.1726,
        "MEAN_ANOMALY": 143.7758,
        "EPHEMERIS_TYPE": 0,
        "CLASSIFICATION_TYPE": "U",
        "NORAD_CAT_ID": 19165,
        "ELEMENT_SET_NO": 999,
        "REV_AT_EPOCH": 28595,
        "BSTAR": 0,
        "MEAN_MOTION_DOT": 3.7e-07,
        "MEAN_MOTION_DDOT": 0
    },
    {
        "OBJECT_NAME": "COSMOS 1971 [GLONASS]",
        "OBJECT_ID": "1988-085B",
        "EPOCH": "2025-02-28T08:04:17.101056",
        "MEAN_MOTION": 2.13101469,
        "ECCENTRICITY": 0.0023102,
        "INCLINATION": 65.4941,
        "RA_OF_ASC_NODE": 330.4943,
        "ARG_OF_PERICENTER": 13.9559,
        "MEAN_ANOMALY": 186.3251,
        "EPHEMERIS_TYPE": 0,
        "CLASSIFICATION_TYPE": "U",
        "NORAD_CAT_ID": 19502,
        "ELEMENT_SET_NO": 999,
        "REV_AT_EPOCH": 26925,
        "BSTAR": 0,
        "MEAN_MOTION_DOT": -4.2e-07,
        "MEAN_MOTION_DDOT": 0
    },
    {
        "OBJECT_NAME": "COSMOS 1972 [GLONASS]",
        "OBJECT_ID": "1988-085C",
        "EPOCH": "2025-03-02T12:00:53.499744",
        "MEAN_MOTION": 2.13102011,
        "ECCENTRICITY": 0.0003981,
        "INCLINATION": 65.529,
        "RA_OF_ASC_NODE": 330.8643,
        "ARG_OF_PERICENTER": 227.6102,
        "MEAN_ANOMALY": 287.794,
        "EPHEMERIS_TYPE": 0,
        "CLASSIFICATION_TYPE": "U",
        "NORAD_CAT_ID": 19503,
        "ELEMENT_SET_NO": 999,
        "REV_AT_EPOCH": 28358,
        "BSTAR": 0,
        "MEAN_MOTION_DOT": -5.1e-07,
        "MEAN_MOTION_DDOT": 0
    },
    {
        "OBJECT_NAME": "COSMOS 1988 [GLONASS]",
        "OBJECT_ID": "1989-001B",
        "EPOCH": "2025-02-28T07:07:38.734176",
        "MEAN_MOTION": 2.13101769,
        "ECCENTRICITY": 0.0015814,
        "INCLINATION": 64.6799,
        "RA_OF_ASC_NODE": 88.8584,
        "ARG_OF_PERICENTER": 222.4402,
        "MEAN_ANOMALY": 320.2897,
        "EPHEMERIS_TYPE": 0,
        "CLASSIFICATION_TYPE": "U",
        "NORAD_CAT_ID": 19750,
        "ELEMENT_SET_NO": 999,
        "REV_AT_EPOCH": 28118,
        "BSTAR": 0,
        "MEAN_MOTION_DOT": 5.5e-07,
        "MEAN_MOTION_DDOT": 0
    },
    {
        "OBJECT_NAME": "COSMOS 2022 [GLONASS]",
        "OBJECT_ID": "1989-039A",
        "EPOCH": "2025-03-02T13:43:08.270400",
        "MEAN_MOTION": 2.13101955,
        "ECCENTRICITY": 0.0007973,
        "INCLINATION": 65.2084,
        "RA_OF_ASC_NODE": 327.0692,
        "ARG_OF_PERICENTER": 214.8328,
        "MEAN_ANOMALY": 323.5086,
        "EPHEMERIS_TYPE": 0,
        "CLASSIFICATION_TYPE": "U",
        "NORAD_CAT_ID": 20024,
        "ELEMENT_SET_NO": 999,
        "REV_AT_EPOCH": 27827,
        "BSTAR": 0,
        "MEAN_MOTION_DOT": -4.8e-07,
        "MEAN_MOTION_DDOT": 0
    },
    {
        "OBJECT_NAME": "COSMOS 2023 [GLONASS]",
        "OBJECT_ID": "1989-039B",
        "EPOCH": "2025-02-28T08:25:55.338816",
        "MEAN_MOTION": 2.13103687,
        "ECCENTRICITY": 0.0019213,
        "INCLINATION": 65.2347,
        "RA_OF_ASC_NODE": 327.4312,
        "ARG_OF_PERICENTER": 200.4062,
        "MEAN_ANOMALY": 262.3181,
        "EPHEMERIS_TYPE": 0,
        "CLASSIFICATION_TYPE": "U",
        "NORAD_CAT_ID": 20025,
        "ELEMENT_SET_NO": 999,
        "REV_AT_EPOCH": 27816,
        "BSTAR": 0,
        "MEAN_MOTION_DOT": -3.8e-07,
        "MEAN_MOTION_DDOT": 0
    }
]